COSMOS 2550             
1 48865U 21056A   26067.47400841 -.00000192  00000+0 -13338-7 0  9992
2 48865  67.1451  44.6088 0008369 269.6014  90.4182 15.33829151263273
STARLINK-34790          
1 65690U 25212Q   26068.18219064  .00050021  00000+0  16902-2 0  9998
2 65690  53.1613 348.1884 0001146  54.1071 306.0036 15.30190120 27114
